IRIDIUM 112             
1 41925U 17003J   25145.70896156  .00000023  00000+0  10068-5 0  9995
2 41925  86.3969 250.1604 0002118  95.4259 264.7178 14.34217581437733
IRIDIUM 111             
1 41926U 17003K   25145.69627656  .00000072  00000+0  18745-4 0  9994
2 41926  86.3972 250.2277 0002376  97.7982 262.3484 14.34217425437718
IRIDIUM 113             
1 42803U 17039A   25145.67623943  .00000139  00000+0  42586-4 0  9995
2 42803  86.3956 124.1667 0002089  90.9930 269.1505 14.34217565415648
IRIDIUM 123             
1 42804U 17039B   25145.99679285  .00000059  00000+0  13958-4 0  9993
2 42804  86.3978 155.4858 0002635  94.4176 265.7320 14.34217759414450
IRIDIUM 120             
1 42805U 17039C   25145.66990107  .00000225  00000+0  73281-4 0  9997
2 42805  86.3954 124.0014 0002742  87.8114 272.3396 14.34219561415639
IRIDIUM 115             
1 42806U 17039D   25145.83650694  .00000241  00000+0  65700-4 0  9996
2 42806  86.4482 124.0078 0003039  94.7528 265.4020 14.43282203418399
IRIDIUM 118             
1 42807U 17039E   25145.95873800  .00000024  00000+0  15846-5 0  9992
2 42807  86.3977 155.5014 0002222  90.3156 269.8294 14.34217585414454
IRIDIUM 117             
1 42808U 17039F   25145.76846046  .00000027  00000+0  25192-5 0  9992
2 42808  86.3977 155.5423 0002469  96.4686 263.6791 14.34217665414449
